IRIDIUM 155             
1 43573U 18061E   26090.45873114  .00000080  00000+0  21674-4 0  9999
2 43573  86.3906  89.1823 0002194  93.8711 266.2735 14.34218164402216
IRIDIUM 154             
1 43574U 18061F   26090.43970453  .00000050  00000+0  10818-4 0  9997
2 43574  86.3909  89.3200 0002413  91.1906 268.9566 14.34217911402267
IRIDIUM 163             
1 43575U 18061G   26090.35090707  .00000056  00000+0  12908-4 0  9992
2 43575  86.3906  89.2748 0002129  90.5584 269.5856 14.34217698402227
IRIDIUM 156             
1 43576U 18061H   26090.46507399  .00000092  00000+0  25689-4 0  9995
2 43576  86.3907  89.2343 0002231  94.9675 265.1775 14.34218236402235
IRIDIUM 164             
1 43577U 18061J   26090.44604702  .00000024  00000+0  14580-5 0  9994
2 43577  86.3909  89.2815 0002320  88.2810 271.8651 14.34217432402276
IRIDIUM 159             
1 43578U 18061K   26090.27479611  .00000042  00000+0  77795-5 0  9992
2 43578  86.3907  89.2915 0002181  86.5319 273.6126 14.34217850402211
IRIDIUM 180             
1 43922U 19002A   26090.55336704  .00000367  00000+0  12389-3 0  9993
2 43922  86.4008  26.0308 0002208  82.4783 277.6664 14.34217551377863
IRIDIUM 176             
1 43923U 19002B   26090.33597440  .00001316  00000+0  20473-3 0  9994
2 43923  86.6130  26.0756 0002638  86.4726 273.6793 14.72258636387790
IRIDIUM 168             
1 43924U 19002C   26090.54702315  .00000182  00000+0  57757-4 0  9993
2 43924  86.4011  26.1083 0002094  85.1276 275.0158 14.34219174377841
IRIDIUM 173             
1 43925U 19002D   26090.53433781  .00000144  00000+0  44221-4 0  9991
2 43925  86.4009  26.0056 0002037  86.7698 273.3731 14.34218833377827
IRIDIUM 169             
1 43926U 19002E   26090.34977917  .00000451  00000+0  14081-3 0  9996
2 43926  86.4204  57.7224 0001955 105.9901 254.1513 14.38610910379038
IRIDIUM 172             
1 43927U 19002F   26090.52799639  .00000084  00000+0  22947-4 0  9993
2 43927  86.4010  26.0160 0002171  81.4186 278.7256 14.34218299377838
IRIDIUM 175             
1 43928U 19002G   26090.57292920  .00000432  00000+0  12158-3 0  9999
2 43928  86.4527 322.9844 0005149 107.0284 253.1482 14.43582974387788
IRIDIUM 171             
1 43929U 19002H   26090.57873510  .00000293  00000+0  97420-4 0  9991
2 43929  86.4018  26.2925 0002320  88.8511 271.2950 14.34219581377832
IRIDIUM 170             
1 43930U 19002J   26090.54606700  .00001370  00000+0  21341-3 0  9990
2 43930  86.6131  25.9908 0002442  82.6692 277.4803 14.72256963387839
IRIDIUM 167             
1 43931U 19002K   26090.36308398  .00000357  00000+0  12040-3 0  9993
2 43931  86.4010  26.1067 0002308  93.9657 266.1802 14.34221228377804
IRIDIUM 181             
1 56726U 23068S   26090.45753659  .00000234  00000+0  63528-4 0  9992
2 56726  86.4446  89.2889 0002513  83.9371 276.2117 14.43310401151224
IRIDIUM 177             
1 56727U 23068T   26090.51317991  .00001900  00000+0  24659-3 0  9997
2 56727  86.2019   5.6708 0002175  86.4422 273.7048 14.80230603154875
IRIDIUM 174             
1 56728U 23068U   26090.32978254  .00001386  00000+0  21599-3 0  9990
2 56728  86.6138  26.2220 0002864  76.9903 283.1634 14.72241233154567
IRIDIUM 178             
1 56729U 23068V   26090.29943204  .00001844  00000+0  23916-3 0  9998
2 56729  86.6518  57.8977 0002855  88.9494 271.2054 14.80243583154841
IRIDIUM 179             
1 56730U 23068W   26090.36165547  .00001816  00000+0  23558-3 0  9995
2 56730  86.6745  66.6254 0002697  94.9716 265.1814 14.80234673154856
